#aV2011  1 28  0  0   .00000000      96 DD+AD WGS84 FIT  NGA
## 1620 432000.00000000   900.00000000 55589  .0000000000000
+   32     1  2  3  4  5  6  7  8  9 10 11 12 13 14 15 16 17
+         18 19 20 21 22 23 24 25 26 27 28 29 30 31 32  0  0
+          0  0  0  0  0  0  0  0  0  0  0  0  0  0  0  0  0
+          0  0  0  0  0  0  0  0  0  0  0  0  0  0  0  0  0
+          0  0  0  0  0  0  0  0  0  0  0  0  0  0  0  0  0
++         0  0  0  0  0  0  0  0  0  0  0  0  0  0  0  0  0
++         0  0  0  0  0  0  0  0  0  0  0  0  0  0  0  0  0
++         0  0  0  0  0  0  0  0  0  0  0  0  0  0  0  0  0
++         0  0  0  0  0  0  0  0  0  0  0  0  0  0  0  0  0
++         0  0  0  0  0  0  0  0  0  0  0  0  0  0  0  0  0
%c cc cc ccc ccc cccc cccc cccc cccc ccccc ccccc ccccc ccccc
%c cc cc ccc ccc cccc cccc cccc cccc ccccc ccccc ccccc ccccc
%f  0.0000000  0.000000000  0.00000000000  0.000000000000000
%f  0.0000000  0.000000000  0.00000000000  0.000000000000000
%i    0    0    0    0      0      0      0      0         0
%i    0    0    0    0      0      0      0      0         0
/*      NGA, ST. LOUIS,MO.                                  
/*   EPHEMERIS COMPUTED FROM  3 DAYS OF DATA                
/* CCCCCCCCCCCCCCCCCCCCCCCCCCCCCCCCCCCCCCCCCCCCCCCCCCCCCCCCC
/* CCCCCCCCCCCCCCCCCCCCCCCCCCCCCCCCCCCCCCCCCCCCCCCCCCCCCCCCC
*  2011  1 28  7  0   .00000000                                                 
P  1  25229.346118   5355.556110   6516.533543   -203.745983                    
V  1   6874.681834   5364.757979 -30374.040721      -.031077                    
P  2 -22542.656361  11670.969291  -6904.477867    317.194505                    
V  2   4621.013552  -8504.531653 -29874.252816       .021178                    
P  3  12805.267784 -10636.729266  20231.098666    668.471417                    
V  3   8171.163171  25552.841742   8422.661483       .051600                    
P  4 -21552.747886   2057.702593 -15817.982425     20.328866                    
V  4  14208.611905 -13725.778730 -21071.289984       .100528                    
P  5 -19782.416785   5010.026176  17035.483018   -105.763840                    
V  5 -19401.278003  -9763.534922 -19532.035150      -.059416                    
P  6  14934.821818  -5679.245327  21362.653999    -41.076128                    
V  6   5539.481181  26293.237258   3338.732544      -.265593                    
P  7  -5731.363777 -14195.963288  21688.526317      2.567455                    
V  7  22101.906393 -16388.254130  -5081.966797       .006811                    
P  8 -15669.280450  -5844.378495  20792.838983      7.288976                    
V  8  21626.729491 -14661.733240  11659.706885       .001227                    
P  9 -12254.171953  20481.883795 -12181.086830     58.175605                    
V  9 -12343.491057   7947.009281  27003.510784       .024843                    
P 10 -25281.211072  -7310.999327   4635.985483    -64.586098                    
V 10  -4485.094059  -4981.635271 -30553.246725      -.011341                    
P 11   7908.640197 -23278.348877  -9905.517120   -122.739364                    
V 11  11316.251813  -6949.472237  26553.828097      -.029228                    
P 12  -4701.304654  14193.290319 -21925.123444    -31.920722                    
V 12 -25683.428727 -10821.540938  -1337.101758       .033245                    
P 13  -5443.280382 -25247.712905   5951.901806    284.423125                    
V 13   1367.872386  -7822.926895 -31254.399873      -.012625                    
P 14  13723.140652  12302.718098 -19017.454636    127.143170                    
V 14   1036.619366  24376.853570  16254.855603       .028677                    
P 15  -4437.273002  23551.715133  11289.302404   -156.908777                    
V 15  -4975.713797 -13781.826469  26986.011009       .036618                    
P 16  22046.827102  -1339.554616  14994.979280   -146.175839                    
V 16  16591.276505   9049.282932 -23355.956880      -.029967                    
P 17 -14063.672091 -13730.186431 -17848.562176    182.337080                    
V 17  -1016.838595 -22848.949015  18031.453747       .005658                    
P 18  17674.796444  16713.827681  11391.099866    118.381411                    
V 18 -13898.579406  -2954.404312  26230.598340       .020852                    
P 19   8906.763769 -20358.875607  14294.756904   -105.687934                    
V 19   3420.034855  18123.998224  24013.036106      -.036267                    
P 20   -926.075786 -16699.732070 -20792.521011     48.720108                    
V 20  24861.202177   8172.642697  -7656.905351      -.000538                    
P 21   7710.522077  14158.901817  21439.503317   -119.843680                    
V 21 -21465.834586  15586.312415  -3244.358451      -.027292                    
P 22  24136.876639  11184.146017    914.565548    154.316540                    
V 22  -2335.105326   2956.743866  31011.332144      -.005185                    
P 23    717.618557 -25734.557516  -5767.257637    329.533168                    
V 23   3758.721388   6963.887719 -30944.533307      -.023131                    
P 24  11027.474281 -19694.132949 -13726.212042    360.374210                    
V 24  16024.210688  -7900.707680  24366.966220       .033848                    
P 25  11405.067539  17058.936422 -16878.457759    -65.762597                    
V 25 -20574.897437  -6144.805201 -20124.006319      -.017632                    
P 26 -11991.037699  12501.669501  19422.066244   -106.952443                    
V 26  -2920.593183 -25863.369980  14827.167778      -.093687                    
P 27 -17232.696534  19203.099498  -4969.907832    231.251083                    
V 27  -7083.197836   2822.460121  31523.933975       .035772                    
P 28 -22513.431306 -13732.489784   4736.597814     16.905034                    
V 28   5706.812007    293.934501  31107.301640       .020045                    
P 29   5032.436430  25888.189536   3391.770044    181.223291                    
V 29  -2282.722942   4461.422083 -31361.411589       .027308                    
P 30  24864.948635   2428.542616   8655.249311    317.202357                    
V 30   9969.988229   6428.062503 -29052.067198       .031796                    
P 31  21848.265384  -4620.864587 -14317.359830     34.814626                    
V 31 -13633.704691  12517.928048 -24284.045538       .044119                    
P 32   8659.689442 -12558.195754 -21425.568928   -184.407896                    
V 32  24699.133111  13098.302046   2666.409718      -.079777                    
EOF
